NORAD_CAT_ID,OBJECT_NAME,OBJECT_TYPE,EPOCH,MEAN_MOTION,ECCENTRICITY,INCLINATION,RA_OF_ASC_NODE,ARG_OF_PERICENTER,MEAN_ANOMALY,BSTAR,MEAN_MOTION_DOT,MEAN_MOTION_DDOT,TLE_LINE0,TLE_LINE1,TLE_LINE2,SEMIMAJOR_AXIS,PERIOD,APOGEE,PERIGEE,DECAYED
52634.0,STARLINK-3974,PAYLOAD,2023-12-22 23:31:55,15.08831236,0.0001847,53.2172,295.1016,119.886,240.2316,0.00010351,1.359e-05,0.0,0 STARLINK-3974,1 52634U 22052AN  23356.98050372  .00001359  00000-0  10351-3 0  9995,2 52634  53.2172 295.1016 0001847 119.8860 240.2316 15.08831236 89438,6917.907,95.438,541.05,538.494,0.0
52634.0,STARLINK-3974,PAYLOAD,2023-12-23 05:53:27,15.08842732,0.0001871,53.2178,293.9019,118.2425,241.8756,-7.9886e-05,-1.559e-05,0.0,0 STARLINK-3974,1 52634U 22052AN  23357.24545768 -.00001559  00000-0 -79886-4 0  9996,2 52634  53.2178 293.9019 0001871 118.2425 241.8756 15.08842732 89472,6917.872,95.437,541.031,538.443,0.0
52634.0,STARLINK-3974,PAYLOAD,2023-12-23 20:11:56,15.08836573,0.0001913,53.2177,291.2264,119.5707,240.5476,0.00011125,1.483e-05,0.0,0 STARLINK-3974,1 52634U 22052AN  23357.84162333  .00001483  00000-0  11125-3 0  9990,2 52634  53.2177 291.2264 0001913 119.5707 240.5476 15.08836573 89569,6917.891,95.438,541.079,538.432,0.0
52634.0,STARLINK-3974,PAYLOAD,2023-12-24 05:44:14,15.08842785,0.0001668,53.2173,289.4433,106.4444,253.6731,0.00011718,1.578e-05,0.0,0 STARLINK-3974,1 52634U 22052AN  23358.23905977  .00001578  00000-0  11718-3 0  9996,2 52634  53.2173 289.4433 0001668 106.4444 253.6731 15.08842785 89248,6917.872,95.437,540.891,538.583,0.0
52634.0,STARLINK-3974,PAYLOAD,2023-12-25 00:48:52,15.08844261,0.0001726,53.2167,285.8764,115.0374,245.0797,6.7662e-05,7.89e-06,0.0,0 STARLINK-3974,1 52634U 22052AN  23359.03393947  .00000789  00000-0  67662-4 0  9996,2 52634  53.2167 285.8764 0001726 115.0374 245.0797 15.08844261 89362,6917.867,95.437,540.926,538.538,0.0
52634.0,STARLINK-3974,PAYLOAD,2023-12-25 19:53:30,15.08841133,0.0001647,53.2168,282.3098,101.6882,258.4295,-3.0202e-05,-7.69e-06,0.0,0 STARLINK-3974,1 52634U 22052AN  23359.82882121 -.00000769  00000-0 -30202-4 0  9990,2 52634  53.2168 282.3098 0001647 101.6882 258.4295 15.08841133 89863,6917.877,95.437,540.881,538.603,0.0
52634.0,STARLINK-3974,PAYLOAD,2023-12-25 21:28:53,15.08838505,0.0001415,53.2182,282.0122,102.8922,257.2228,-7.8786e-07,-3e-06,0.0,0 STARLINK-3974,1 52634U 22052AN  23359.89506708 -.00000300  00000-0 -78786-6 0  9993,2 52634  53.2182 282.0122 0001415 102.8922 257.2228 15.08838505 89496,6917.885,95.438,540.729,538.771,0.0
52634.0,STARLINK-3974,PAYLOAD,2023-12-26 00:39:40,15.08839036,0.0001449,53.2178,281.4177,97.6967,262.419,-1.6053e-06,-3.14e-06,0.0,0 STARLINK-3974,1 52634U 22052AN  23360.02754677 -.00000314  00000-0 -16053-5 0  9993,2 52634  53.2178 281.4177 0001449  97.6967 262.4190 15.08839036 89510,6917.883,95.438,540.751,538.746,0.0
52634.0,STARLINK-3974,PAYLOAD,2023-12-26 22:55:02,15.08853969,0.0001552,53.2164,277.2508,108.9274,251.1887,4.4808e-06,-2.17e-06,0.0,0 STARLINK-3974,1 52634U 22052AN  23360.95489315 -.00000217  00000-0  44808-5 0  9999,2 52634  53.2164 277.2508 0001552 108.9274 251.1887 15.08853969 89652,6917.838,95.437,540.776,538.629,0.0
52634.0,STARLINK-3974,PAYLOAD,2023-12-27 02:05:50,15.08826741,0.0001335,53.217,276.663,89.9521,270.1624,-4.5361e-05,-1.009e-05,0.0,0 STARLINK-3974,1 52634U 22052AN  23361.08739178 -.00001009  00000-0 -45361-4 0  9994,2 52634  53.2170 276.6630 0001335  89.9521 270.1624 15.08826741 90054,6917.921,95.438,540.709,538.862,0.0
52634.0,STARLINK-3974,PAYLOAD,2023-12-27 21:10:28,15.08830864,0.0001257,53.2167,273.0961,81.0852,279.0283,3.2726e-05,2.33e-06,0.0,0 STARLINK-3974,1 52634U 22052AN  23361.88227196  .00000233  00000-0  32726-4 0  9991,2 52634  53.2167 273.0961 0001257  81.0852 279.0283 15.08830864 89790,6917.908,95.438,540.643,538.904,0.0
52634.0,STARLINK-3974,PAYLOAD,2023-12-28 01:56:37,15.0884217,0.0001394,53.2177,272.2015,76.611,283.5038,9.3897e-05,1.207e-05,0.0,0 STARLINK-3974,1 52634U 22052AN  23362.08098663  .00001207  00000-0  93897-4 0  9997,2 52634  53.2177 272.2015 0001394  76.6110 283.5038 15.08842170 90200,6917.874,95.437,540.703,538.774,0.0
52634.0,STARLINK-3974,PAYLOAD,2023-12-28 22:36:38,15.08828962,0.0001388,53.2171,268.3362,82.2795,277.8355,0.00014271,1.983e-05,0.0,0 STARLINK-3974,1 52634U 22052AN  23362.94211176  .00001983  00000-0  14271-3 0  9997,2 52634  53.2171 268.3362 0001388  82.2795 277.8355 15.08828962 89951,6917.914,95.438,540.739,538.819,0.0
52634.0,STARLINK-3974,PAYLOAD,2023-12-29 03:22:47,15.08835656,0.0001531,53.218,267.4413,79.2574,280.859,0.00017479,2.495e-05,0.0,0 STARLINK-3974,1 52634U 22052AN  23363.14082735  .00002495  00000-0  17479-3 0  9999,2 52634  53.2180 267.4413 0001531  79.2574 280.8590 15.08835656 90369,6917.894,95.438,540.818,538.7,0.0
52634.0,STARLINK-3974,PAYLOAD,2023-12-29 22:27:24,15.08846316,0.0001431,53.2173,263.8746,91.2387,268.8769,6.6879e-05,7.77e-06,0.0,0 STARLINK-3974,1 52634U 22052AN  23363.93570509  .00000777  00000-0  66879-4 0  9997,2 52634  53.2173 263.8746 0001431  91.2387 268.8769 15.08846316 90106,6917.861,95.437,540.716,538.736,0.0
52634.0,STARLINK-3974,PAYLOAD,2023-12-30 00:02:47,15.08849281,0.0001439,53.2171,263.5772,92.5765,267.5392,9.1601e-05,1.171e-05,0.0,0 STARLINK-3974,1 52634U 22052AN  23364.00194140  .00001171  00000-0  91601-4 0  9999,2 52634  53.2171 263.5772 0001439  92.5765 267.5392 15.08849281 90496,6917.852,95.437,540.712,538.722,0.0
52634.0,STARLINK-3974,PAYLOAD,2023-12-30 22:18:12,15.08840764,0.0001389,53.2171,259.4128,107.4121,252.7023,3.1405e-06,-2.38e-06,0.0,0 STARLINK-3974,1 52634U 22052AN  23364.92930829 -.00000238  00000-0  31405-5 0  9993,2 52634  53.2171 259.4128 0001389 107.4121 252.7023 15.08840764 90259,6917.878,95.438,540.704,538.782,0.0
52634.0,STARLINK-3974,PAYLOAD,2023-12-30 23:53:35,15.08841694,0.0001431,53.2169,259.1154,110.9408,249.1737,1.4426e-05,-5.8e-07,0.0,0 STARLINK-3974,1 52634U 22052AN  23364.99554705 -.00000058  00000-0  14426-4 0  9998,2 52634  53.2169 259.1154 0001431 110.9408 249.1737 15.08841694 90645,6917.875,95.437,540.73,538.75,0.0
52634.0,STARLINK-3974,PAYLOAD,2023-12-31 22:08:59,15.08844409,0.0001351,53.2163,254.9542,103.5668,256.5475,-3.79e-05,-8.91e-06,0.0,0 STARLINK-3974,1 52634U 22052AN  23365.92290758 -.00000891  00000-0 -37900-4 0  9995,2 52634  53.2163 254.9542 0001351 103.5668 256.5475 15.08844409 90402,6917.867,95.437,540.667,538.797,0.0
52634.0,STARLINK-3974,PAYLOAD,2024-01-01 20:24:23,15.08832247,0.0001319,53.2162,250.7914,98.858,261.2562,0.00014025,1.944e-05,0.0,0 STARLINK-3974,1 52634U 22052AN  24001.85026950  .00001944  00000-0  14025-3 0  9996,2 52634  53.2162 250.7914 0001319  98.8580 261.2562 15.08832247 90925,6917.904,95.438,540.682,538.857,0.0
52634.0,STARLINK-3974,PAYLOAD,2024-01-01 21:59:46,15.08838605,0.0001275,53.216,250.4941,93.8785,266.2352,6.6322e-05,7.68e-06,0.0,0 STARLINK-3974,1 52634U 22052AN  24001.91650872  .00000768  00000-0  66322-4 0  9990,2 52634  53.2160 250.4941 0001275  93.8785 266.2352 15.08838605 90558,6917.885,95.438,540.632,538.868,0.0
52634.0,STARLINK-3974,PAYLOAD,2024-01-02 21:50:33,15.08840071,0.0001308,53.216,246.0342,90.0751,270.0391,4.374e-05,4.08e-06,0.0,0 STARLINK-3974,1 52634U 22052AN  24002.91011045  .00000408  00000-0  43740-4 0  9994,2 52634  53.2160 246.0342 0001308  90.0751 270.0391 15.08840071 90706,6917.88,95.438,540.65,538.84,0.0
52634.0,STARLINK-3974,PAYLOAD,2024-01-03 02:36:42,15.08846671,0.0001516,53.2163,245.1421,99.3585,260.7579,-2.3114e-05,-6.56e-06,0.0,0 STARLINK-3974,1 52634U 22052AN  24003.10882763 -.00000656  00000-0 -23114-4 0  9999,2 52634  53.2163 245.1421 0001516  99.3585 260.7579 15.08846671 91117,6917.86,95.437,540.774,538.676,0.0
52634.0,STARLINK-3974,PAYLOAD,2024-01-03 20:05:57,15.08838709,0.0001449,53.2161,241.8707,96.7516,263.3641,-2.0412e-05,-6.13e-06,0.0,0 STARLINK-3974,1 52634U 22052AN  24003.83747386 -.00000613  00000-0 -20412-4 0  9991,2 52634  53.2161 241.8707 0001449  96.7516 263.3641 15.08838709 91229,6917.884,95.438,540.752,538.747,0.0
52634.0,STARLINK-3974,PAYLOAD,2024-01-03 21:41:20,15.08837941,0.0001461,53.2165,241.5736,98.4229,261.6929,3.2646e-05,2.32e-06,0.0,0 STARLINK-3974,1 52634U 22052AN  24003.90371295  .00000232  00000-0  32646-4 0  9998,2 52634  53.2165 241.5736 0001461  98.4229 261.6929 15.08837941 90851,6917.887,95.438,540.762,538.741,0.0
52634.0,STARLINK-3974,PAYLOAD,2024-01-04 00:52:07,15.08838935,0.0001407,53.216,240.9787,93.2286,266.8867,4.0309e-05,3.54e-06,0.0,0 STARLINK-3974,1 52634U 22052AN  24004.03619232  .00000354  00000-0  40309-4 0  9999,2 52634  53.2160 240.9787 0001407  93.2286 266.8867 15.08838935 90875,6917.884,95.438,540.722,538.775,0.0
52634.0,STARLINK-3974,PAYLOAD,2024-01-04 21:32:07,15.08843772,0.0001523,53.2158,237.1127,87.6988,272.4178,6.1705e-05,6.94e-06,0.0,0 STARLINK-3974,1 52634U 22052AN  24004.89730884  .00000694  00000-0  61705-4 0  9990,2 52634  53.2158 237.1127 0001523  87.6988 272.4178 15.08843772 91002,6917.869,95.437,540.787,538.68,0.0
52634.0,STARLINK-3974,PAYLOAD,2024-01-04 23:07:30,15.08844853,0.0001556,53.2161,236.8155,85.6909,274.4261,6.8938e-05,8.09e-06,0.0,0 STARLINK-3974,1 52634U 22052AN  24004.96354802  .00000809  00000-0  68938-4 0  9993,2 52634  53.2161 236.8155 0001556  85.6909 274.4261 15.08844853 91398,6917.866,95.437,540.807,538.654,0.0
52634.0,STARLINK-3974,PAYLOAD,2024-01-05 15:01:21,15.08857194,0.0001616,53.2162,233.8476,71.5676,288.5491,-0.00026512,-4.507e-05,0.0,0 STARLINK-3974,1 52634U 22052AN  24005.62594734 -.00004507  00000-0 -26512-3 0  9999,2 52634  53.2162 233.8476 0001616  71.5676 288.5491 15.08857194 91117,6917.828,95.436,540.811,538.575,0.0
52634.0,STARLINK-3974,PAYLOAD,2024-01-05 21:22:55,15.08832874,0.0001664,53.2161,232.6544,78.2929,281.825,-2.4469e-05,-6.77e-06,0.0,0 STARLINK-3974,1 52634U 22052AN  24005.89092104 -.00000677  00000-0 -24469-4 0  9996,2 52634  53.2161 232.6544 0001664  78.2929 281.8250 15.08832874 91158,6917.902,95.438,540.918,538.616,0.0
